start=new Date('2022-11-12T00:00:00.000Z').valueOf();
sats=[{"REV_AT_EPOCH":"8417","TLE_LINE2":"2 48367  53.0554  41.7788 0001430  88.7045 271.4107 15.06396738 84177","LAUNCH_DATE":"2021-05-04","MEAN_MOTION_DOT":"0.00010865","SITE":"AFETR","APOAPSIS":"548.214","OBJECT_TYPE":"PAYLOAD","OBJECT_ID":"2021-038Q","ARG_OF_PERICENTER":"88.7045","REF_FRAME":"TEME","CLASSIFICATION_TYPE":"U","MEAN_MOTION_DDOT":"0.0000000000000","SEMIMAJOR_AXIS":"6925.359","EPOCH":"2022-11-11T14:58:57.555264","COUNTRY_CODE":"US","DECAY_DATE":null,"INCLINATION":"53.0554","GP_ID":"217490562","NORAD_CAT_ID":"48367","FILE":"3651775","BSTAR":"0.00074721000000","MEAN_MOTION":"15.06396738","PERIAPSIS":"546.233","TIME_SYSTEM":"UTC","OBJECT_NAME":"STARLINK-2643","MEAN_ELEMENT_THEORY":"SGP4","TLE_LINE1":"1 48367U 21038Q   22315.62427726  .00010865  00000-0  74721-3 0  9995","RCS_SIZE":"LARGE","RA_OF_ASC_NODE":"41.7788","ECCENTRICITY":"0.00014300","EPHEMERIS_TYPE":"0","CENTER_NAME":"EARTH","ELEMENT_SET_NO":"999","PERIOD":"95.592","MEAN_ANOMALY":"271.4107"},{"COUNTRY_CODE":"US","INCLINATION":"53.0552","DECAY_DATE":null,"GP_ID":"217464735","NORAD_CAT_ID":"48368","BSTAR":"0.00108690000000","FILE":"3651559","PERIAPSIS":"546.368","MEAN_MOTION":"15.06393681","TIME_SYSTEM":"UTC","OBJECT_NAME":"STARLINK-2623","TLE_LINE1":"1 48368U 21038R   22315.46951231  .00015942  00000-0  10869-2 0  9994","MEAN_ELEMENT_THEORY":"SGP4","RCS_SIZE":"LARGE","RA_OF_ASC_NODE":"42.7512","ECCENTRICITY":"0.00012490","EPHEMERIS_TYPE":"0","CENTER_NAME":"EARTH","ELEMENT_SET_NO":"999","PERIOD":"95.593","MEAN_ANOMALY":"274.3342","REV_AT_EPOCH":"8474","TLE_LINE2":"2 48368  53.0552  42.7512 0001249  85.7790 274.3342 15.06393681 84744","LAUNCH_DATE":"2021-05-04","MEAN_MOTION_DOT":"0.00015942","SITE":"AFETR","APOAPSIS":"548.098","OBJECT_TYPE":"PAYLOAD","ARG_OF_PERICENTER":"85.7790","OBJECT_ID":"2021-038R","REF_FRAME":"TEME","CLASSIFICATION_TYPE":"U","MEAN_MOTION_DDOT":"0.0000000000000","SEMIMAJOR_AXIS":"6925.368","EPOCH":"2022-11-11T11:16:05.863584"},{"ELEMENT_SET_NO":"999","PERIOD":"95.592","MEAN_ANOMALY":"290.4979","CENTER_NAME":"EARTH","EPHEMERIS_TYPE":"0","RCS_SIZE":"LARGE","ECCENTRICITY":"0.00011920","RA_OF_ASC_NODE":"41.1984","OBJECT_NAME":"STARLINK-2641","TLE_LINE1":"1 48369U 21038S   22315.75328352  .00017080  00000-0  11625-2 0  9995","MEAN_ELEMENT_THEORY":"SGP4","TIME_SYSTEM":"UTC","PERIAPSIS":"546.365","MEAN_MOTION":"15.06407479","FILE":"3651775","BSTAR":"0.00116250000000","GP_ID":"217492036","NORAD_CAT_ID":"48369","COUNTRY_CODE":"US","INCLINATION":"53.0546","DECAY_DATE":null,"MEAN_MOTION_DDOT":"0.0000000000000","SEMIMAJOR_AXIS":"6925.326","EPOCH":"2022-11-11T18:04:43.696128","REF_FRAME":"TEME","CLASSIFICATION_TYPE":"U","OBJECT_TYPE":"PAYLOAD","OBJECT_ID":"2021-038S","ARG_OF_PERICENTER":"69.6138","SITE":"AFETR","APOAPSIS":"548.016","LAUNCH_DATE":"2021-05-04","MEAN_MOTION_DOT":"0.00017080","TLE_LINE2":"2 48369  53.0546  41.1984 0001192  69.6138 290.4979 15.06407479 84193","REV_AT_EPOCH":"8419"},{"REV_AT_EPOCH":"8418","TLE_LINE2":"2 48370  53.0565  41.5125 0001317  89.8674 270.2466 15.06395246 84189","MEAN_MOTION_DOT":"0.00003196","LAUNCH_DATE":"2021-05-04","APOAPSIS":"548.140","SITE":"AFETR","ARG_OF_PERICENTER":"89.8674","OBJECT_ID":"2021-038T","OBJECT_TYPE":"PAYLOAD","CLASSIFICATION_TYPE":"U","REF_FRAME":"TEME","EPOCH":"2022-11-11T16:23:52.437120","SEMIMAJOR_AXIS":"6925.363","MEAN_MOTION_DDOT":"0.0000000000000","INCLINATION":"53.0565","DECAY_DATE":null,"COUNTRY_CODE":"US","NORAD_CAT_ID":"48370","GP_ID":"217490816","BSTAR":"0.00023340000000","FILE":"3651775","PERIAPSIS":"546.316","TIME_SYSTEM":"UTC","MEAN_MOTION":"15.06395246","MEAN_ELEMENT_THEORY":"SGP4","TLE_LINE1":"1 48370U 21038T   22315.68324580  .00003196  00000-0  23340-3 0  9999","OBJECT_NAME":"STARLINK-2621","ECCENTRICITY":"0.00013170","RA_OF_ASC_NODE":"41.5125","RCS_SIZE":"LARGE","EPHEMERIS_TYPE":"0","CENTER_NAME":"EARTH","MEAN_ANOMALY":"270.2466","PERIOD":"95.592","ELEMENT_SET_NO":"999"},{"TLE_LINE1":"1 48371U 21038U   22315.67957887  .00001777  00000-0  13822-3 0  9998","MEAN_ELEMENT_THEORY":"SGP4","OBJECT_NAME":"STARLINK-2589","RA_OF_ASC_NODE":"41.5298","ECCENTRICITY":"0.00014650","RCS_SIZE":"LARGE","CENTER_NAME":"EARTH","EPHEMERIS_TYPE":"0","PERIOD":"95.593","MEAN_ANOMALY":"277.6100","ELEMENT_SET_NO":"999","DECAY_DATE":null,"INCLINATION":"53.0549","COUNTRY_CODE":"US","GP_ID":"217491062","NORAD_CAT_ID":"48371","BSTAR":"0.00013822000000","FILE":"3651775","MEAN_MOTION":"15.06380639","PERIAPSIS":"546.258","TIME_SYSTEM":"UTC","APOAPSIS":"548.287","SITE":"AFETR","OBJECT_TYPE":"PAYLOAD","ARG_OF_PERICENTER":"82.5055","OBJECT_ID":"2021-038U","CLASSIFICATION_TYPE":"U","REF_FRAME":"TEME","EPOCH":"2022-11-11T16:18:35.614368","MEAN_MOTION_DDOT":"0.0000000000000","SEMIMAJOR_AXIS":"6925.408","REV_AT_EPOCH":"8418","TLE_LINE2":"2 48371  53.0549  41.5298 0001465  82.5055 277.6100 15.06380639 84186","MEAN_MOTION_DOT":"0.00001777","LAUNCH_DATE":"2021-05-04"},{"BSTAR":"0.00015374000000","FILE":"3651775","MEAN_MOTION":"15.06390572","PERIAPSIS":"546.203","TIME_SYSTEM":"UTC","COUNTRY_CODE":"US","DECAY_DATE":null,"INCLINATION":"53.0553","NORAD_CAT_ID":"48372","GP_ID":"217491818","CENTER_NAME":"EARTH","EPHEMERIS_TYPE":"0","ELEMENT_SET_NO":"999","MEAN_ANOMALY":"268.7906","PERIOD":"95.593","OBJECT_NAME":"STARLINK-2572","TLE_LINE1":"1 48372U 21038V   22315.60953884  .00002009  00000-0  15374-3 0  9998","MEAN_ELEMENT_THEORY":"SGP4","RCS_SIZE":"LARGE","RA_OF_ASC_NODE":"41.8433","ECCENTRICITY":"0.00015010","LAUNCH_DATE":"2021-05-04","MEAN_MOTION_DOT":"0.00002009","REV_AT_EPOCH":"8417","TLE_LINE2":"2 48372  53.0553  41.8433 0001501  91.3254 268.7906 15.06390572 84177","REF_FRAME":"TEME","CLASSIFICATION_TYPE":"U","SEMIMAJOR_AXIS":"6925.377","MEAN_MOTION_DDOT":"0.0000000000000","EPOCH":"2022-11-11T14:37:44.155776","SITE":"AFETR","APOAPSIS":"548.282","OBJECT_ID":"2021-038V","ARG_OF_PERICENTER":"91.3254","OBJECT_TYPE":"PAYLOAD"},{"MEAN_ANOMALY":"270.8790","PERIOD":"95.592","ELEMENT_SET_NO":"999","EPHEMERIS_TYPE":"0","CENTER_NAME":"EARTH","RA_OF_ASC_NODE":"41.5521","ECCENTRICITY":"0.00017750","RCS_SIZE":"LARGE","MEAN_ELEMENT_THEORY":"SGP4","TLE_LINE1":"1 48373U 21038W   22315.67221305  .00019594  00000-0  13304-2 0  9999","OBJECT_NAME":"STARLINK-2609","TIME_SYSTEM":"UTC","PERIAPSIS":"545.961","MEAN_MOTION":"15.06407479","FILE":"3651775","BSTAR":"0.00133040000000","NORAD_CAT_ID":"48373","GP_ID":"217491537","INCLINATION":"53.0551","DECAY_DATE":null,"COUNTRY_CODE":"US","EPOCH":"2022-11-11T16:07:59.207520","SEMIMAJOR_AXIS":"6925.326","MEAN_MOTION_DDOT":"0.0000000000000","CLASSIFICATION_TYPE":"U","REF_FRAME":"TEME","ARG_OF_PERICENTER":"89.2402","OBJECT_ID":"2021-038W","OBJECT_TYPE":"PAYLOAD","APOAPSIS":"548.420","SITE":"AFETR","MEAN_MOTION_DOT":"0.00019594","LAUNCH_DATE":"2021-05-04","TLE_LINE2":"2 48373  53.0551  41.5521 0001775  89.2402 270.8790 15.06407479 84186","REV_AT_EPOCH":"8418"},{"CENTER_NAME":"EARTH","EPHEMERIS_TYPE":"0","ELEMENT_SET_NO":"999","PERIOD":"95.593","MEAN_ANOMALY":"275.9097","OBJECT_NAME":"STARLINK-2604","MEAN_ELEMENT_THEORY":"SGP4","TLE_LINE1":"1 48374U 21038X   22315.53486503  .00000340  00000-0  41755-4 0  9990","RCS_SIZE":"LARGE","RA_OF_ASC_NODE":"42.1683","ECCENTRICITY":"0.00013660","BSTAR":"0.00004175500000","FILE":"3651496","PERIAPSIS":"546.309","TIME_SYSTEM":"UTC","MEAN_MOTION":"15.06386518","COUNTRY_CODE":"US","DECAY_DATE":null,"INCLINATION":"53.0559","GP_ID":"217434500","NORAD_CAT_ID":"48374","REF_FRAME":"TEME","CLASSIFICATION_TYPE":"U","MEAN_MOTION_DDOT":"0.0000000000000","SEMIMAJOR_AXIS":"6925.390","EPOCH":"2022-11-11T12:50:12.338592","SITE":"AFETR","APOAPSIS":"548.201","OBJECT_TYPE":"PAYLOAD","ARG_OF_PERICENTER":"84.2048","OBJECT_ID":"2021-038X","LAUNCH_DATE":"2021-05-04","MEAN_MOTION_DOT":"0.00000340","REV_AT_EPOCH":"8416","TLE_LINE2":"2 48374  53.0559  42.1683 0001366  84.2048 275.9097 15.06386518 84162"},{"LAUNCH_DATE":"2021-05-04","MEAN_MOTION_DOT":"0.00003211","TLE_LINE2":"2 48375  53.0545  41.5892 0001347  79.7349 280.3792 15.06392161 84180","REV_AT_EPOCH":"8418","MEAN_MOTION_DDOT":"0.0000000000000","SEMIMAJOR_AXIS":"6925.373","EPOCH":"2022-11-11T15:57:20.376288","REF_FRAME":"TEME","CLASSIFICATION_TYPE":"U","OBJECT_TYPE":"PAYLOAD","ARG_OF_PERICENTER":"79.7349","OBJECT_ID":"2021-038Y","SITE":"AFETR","APOAPSIS":"548.170","TIME_SYSTEM":"UTC","PERIAPSIS":"546.305","MEAN_MOTION":"15.06392161","BSTAR":"0.00023438000000","FILE":"3651775","GP_ID":"217490563","NORAD_CAT_ID":"48375","COUNTRY_CODE":"US","INCLINATION":"53.0545","DECAY_DATE":null,"ELEMENT_SET_NO":"999","PERIOD":"95.593","MEAN_ANOMALY":"280.3792","EPHEMERIS_TYPE":"0","CENTER_NAME":"EARTH","RCS_SIZE":"LARGE","RA_OF_ASC_NODE":"41.5892","ECCENTRICITY":"0.00013470","OBJECT_NAME":"STARLINK-2603","TLE_LINE1":"1 48375U 21038Y   22315.66481917  .00003211  00000-0  23438-3 0  9996","MEAN_ELEMENT_THEORY":"SGP4"},{"ELEMENT_SET_NO":"999","MEAN_ANOMALY":"284.6754","PERIOD":"95.592","CENTER_NAME":"EARTH","EPHEMERIS_TYPE":"0","RCS_SIZE":"LARGE","RA_OF_ASC_NODE":"41.6118","ECCENTRICITY":"0.00013420","OBJECT_NAME":"STARLINK-2610","MEAN_ELEMENT_THEORY":"SGP4","TLE_LINE1":"1 48376U 21038Z   22315.66113270  .00012287  00000-0  84213-3 0  9992","PERIAPSIS":"546.263","TIME_SYSTEM":"UTC","MEAN_MOTION":"15.06407068","FILE":"3651775","BSTAR":"0.00084213000000","NORAD_CAT_ID":"48376","GP_ID":"217491319","COUNTRY_CODE":"US","INCLINATION":"53.0542","DECAY_DATE":null,"SEMIMAJOR_AXIS":"6925.327","MEAN_MOTION_DDOT":"0.0000000000000","EPOCH":"2022-11-11T15:52:01.865280","REF_FRAME":"TEME","CLASSIFICATION_TYPE":"U","ARG_OF_PERICENTER":"75.4384","OBJECT_ID":"2021-038Z","OBJECT_TYPE":"PAYLOAD","SITE":"AFETR","APOAPSIS":"548.121","LAUNCH_DATE":"2021-05-04","MEAN_MOTION_DOT":"0.00012287","TLE_LINE2":"2 48376  53.0542  41.6118 0001342  75.4384 284.6754 15.06407068 84185","REV_AT_EPOCH":"8418"}];
